NORAD_CAT_ID,OBJECT_NAME,OBJECT_TYPE,EPOCH,MEAN_MOTION,ECCENTRICITY,INCLINATION,RA_OF_ASC_NODE,ARG_OF_PERICENTER,MEAN_ANOMALY,BSTAR,MEAN_MOTION_DOT,MEAN_MOTION_DDOT,TLE_LINE0,TLE_LINE1,TLE_LINE2,SEMIMAJOR_AXIS,PERIOD,APOGEE,PERIGEE,DECAYED
56783.0,STARLINK-6357,PAYLOAD,2023-11-13 14:00:01,15.61466983,0.0003188,69.9992,305.7904,265.9609,266.9539,-0.012365,-0.00960767,0.0,0 STARLINK-6357,1 56783U 23078S   23317.58334491 -.00960767  00000-0 -12365-1 0  9997,2 56783  69.9992 305.7904 0003188 265.9609 266.9539 15.61466983  6049,6761.556,92.221,385.576,381.265,0.0
56783.0,STARLINK-6357,PAYLOAD,2023-11-13 20:00:01,15.60908947,0.0003296,69.9994,305.0968,261.1044,236.477,-0.010933,-0.00841869,0.0,0 STARLINK-6357,1 56783U 23078S   23317.83334491 -.00841869  00000-0 -10933-1 0  9995,2 56783  69.9994 305.0968 0003296 261.1044 236.4770 15.60908947 26440,6763.167,92.254,387.261,382.803,0.0
56783.0,STARLINK-6357,PAYLOAD,2023-11-13 22:00:00,15.60766218,0.0003373,69.9995,304.8657,258.3237,347.3652,-0.011312,-0.00864261,0.0,0 STARLINK-6357,1 56783U 23078S   23317.91667824 -.00864261  00000-0 -11312-1 0  9996,2 56783  69.9995 304.8657 0003373 258.3237 347.3652 15.60766218  6049,6763.58,92.262,387.726,383.163,0.0
56783.0,STARLINK-6357,PAYLOAD,2023-11-14 04:00:00,15.6031489,0.000331,69.9995,304.1726,262.7657,306.9788,-0.012597,-0.00938443,0.0,0 STARLINK-6357,1 56783U 23078S   23318.16667824 -.00938443  00000-0 -12597-1 0  9994,2 56783  69.9995 304.1726 0003310 262.7657 306.9788 15.60314890 26492,6764.884,92.289,388.988,384.51,0.0
56783.0,STARLINK-6357,PAYLOAD,2023-11-14 14:00:01,15.59505864,0.0003453,69.9991,303.0184,266.2144,122.6532,-0.013255,-0.00955613,0.0,0 STARLINK-6357,1 56783U 23078S   23318.58334491 -.00955613  00000-0 -13255-1 0  9991,2 56783  69.9991 303.0184 0003453 266.2144 122.6532 15.59505864  6008,6767.223,92.337,391.425,386.751,0.0
56783.0,STARLINK-6357,PAYLOAD,2023-11-14 22:00:00,15.58818631,0.0003435,69.9996,302.0962,260.9752,198.315,-0.012419,-0.00879303,0.0,0 STARLINK-6357,1 56783U 23078S   23318.91667824 -.00879303  00000-0 -12419-1 0  9999,2 56783  69.9996 302.0962 0003435 260.9752 198.3150 15.58818631  6051,6769.212,92.378,393.402,388.752,0.0
56783.0,STARLINK-6357,PAYLOAD,2023-11-15 06:00:02,15.58173799,0.0003347,69.9997,301.1747,265.6484,263.3488,-0.013184,-0.00908119,0.0,0 STARLINK-6357,1 56783U 23078S   23319.25002315 -.00908119  00000-0 -13184-1 0  9993,2 56783  69.9997 301.1747 0003347 265.6484 263.3488 15.58173799 26664,6771.079,92.416,395.211,390.678,0.0
56783.0,STARLINK-6357,PAYLOAD,2023-11-15 14:00:01,15.57550249,0.0003392,69.9995,300.2543,265.1303,332.7112,-0.014318,-0.00958176,0.0,0 STARLINK-6357,1 56783U 23078S   23319.58335648 -.00958176  00000-0 -14318-1 0  9995,2 56783  69.9995 300.2543 0003392 265.1303 332.7112 15.57550249  5997,6772.886,92.453,397.049,392.454,0.0
56783.0,STARLINK-6357,PAYLOAD,2023-11-15 22:00:00,15.56861446,0.0003561,69.9998,299.3349,261.3142,44.5384,-0.013357,-0.00878576,0.0,0 STARLINK-6357,1 56783U 23078S   23319.91667824 -.00878576  00000-0 -13357-1 0  9993,2 56783  69.9998 299.3349 0003561 261.3142  44.5384 15.56861446  6059,6774.884,92.494,399.162,394.336,0.0
56783.0,STARLINK-6357,PAYLOAD,2023-11-16 06:00:00,15.56211906,0.0003553,69.9997,298.4163,268.4915,104.6574,-0.013975,-0.00895584,0.0,0 STARLINK-6357,1 56783U 23078S   23320.25001157 -.00895584  00000-0 -13975-1 0  9997,2 56783  69.9997 298.4163 0003553 268.4915 104.6574 15.56211906 26825,6776.769,92.532,401.042,396.226,0.0
56783.0,STARLINK-6357,PAYLOAD,2023-11-16 14:00:01,15.55589509,0.0003349,69.9996,297.4986,268.742,170.9068,-0.015308,-0.00952647,0.0,0 STARLINK-6357,1 56783U 23078S   23320.58334491 -.00952647  00000-0 -15308-1 0  9999,2 56783  69.9996 297.4986 0003349 268.7420 170.9068 15.55589509  6056,6778.577,92.569,402.712,398.171,0.0
56783.0,STARLINK-6357,PAYLOAD,2023-11-16 22:00:01,15.54910362,0.0003257,70.0002,296.5819,262.1388,243.2997,-0.014511,-0.008869,0.0,0 STARLINK-6357,1 56783U 23078S   23320.91668981 -.00886900  00000-0 -14511-1 0  9993,2 56783  70.0002 296.5819 0003257 262.1388 243.2997 15.54910362 26928,6780.55,92.61,404.624,400.207,0.0
56783.0,STARLINK-6357,PAYLOAD,2023-11-17 14:00:01,15.53631227,0.0003325,69.9997,294.7508,264.6745,9.8039,-0.016424,-0.00964758,0.0,0 STARLINK-6357,1 56783U 23078S   23321.58334491 -.00964758  00000-0 -16424-1 0  9996,2 56783  69.9997 294.7508 0003325 264.6745   9.8039 15.53631227 27038,6784.271,92.686,408.392,403.881,0.0
56783.0,STARLINK-6357,PAYLOAD,2023-11-17 22:00:01,15.52955749,0.0003456,70.0,293.8367,260.0857,77.834,-0.01565,-0.00890266,0.0,0 STARLINK-6357,1 56783U 23078S   23321.91668981 -.00890266  00000-0 -15650-1 0  9999,2 56783  70.0000 293.8367 0003456 260.0857  77.8340 15.52955749  5996,6786.239,92.726,410.449,405.758,0.0
56783.0,STARLINK-6357,PAYLOAD,2023-11-18 06:00:00,15.52303058,0.0003391,70.0001,292.9233,267.4979,132.9613,-0.016281,-0.00903232,0.0,0 STARLINK-6357,1 56783U 23078S   23322.25001157 -.00903232  00000-0 -16281-1 0  9992,2 56783  70.0001 292.9233 0003391 267.4979 132.9613 15.52303058 27139,6788.141,92.765,412.308,407.704,0.0
56783.0,STARLINK-6357,PAYLOAD,2023-11-18 14:00:01,15.51490653,0.0003417,69.9998,292.0109,265.0037,197.2947,-0.0070105,-0.00395824,0.0,0 STARLINK-6357,1 56783U 23078S   23322.58334491 -.00395824  00000-0 -70105-2 0  9996,2 56783  69.9998 292.0109 0003417 265.0037 197.2947 15.51490653 27188,6790.51,92.814,414.695,410.055,0.0
56783.0,STARLINK-6357,PAYLOAD,2023-11-18 22:00:00,15.51226746,0.000335,70.0001,291.0997,261.0133,262.3345,0.00015714,9.077e-05,0.0,0 STARLINK-6357,1 56783U 23078S   23322.91667824  .00009077  00000-0  15714-3 0  9998,2 56783  70.0001 291.0997 0003350 261.0133 262.3345 15.51226746 27231,6791.28,92.83,415.42,410.87,0.0
56783.0,STARLINK-6357,PAYLOAD,2023-11-19 14:00:01,15.51243936,0.0003249,69.9997,289.2769,267.691,17.5535,-0.00088307,-0.00051734,0.0,0 STARLINK-6357,1 56783U 23078S   23323.58335648 -.00051734  00000-0 -88307-3 0  9995,2 56783  69.9997 289.2769 0003249 267.6910  17.5535 15.51243936  6036,6791.23,92.829,415.302,410.889,0.0
56783.0,STARLINK-6357,PAYLOAD,2023-11-19 22:00:00,15.5123355,0.0003289,70.0002,288.3657,263.9655,82.1205,-2.4338e-05,-1.595e-05,0.0,0 STARLINK-6357,1 56783U 23078S   23323.91667824 -.00001595  00000-0 -24338-4 0  9991,2 56783  70.0002 288.3657 0003289 263.9655  82.1205 15.51233550 27396,6791.26,92.829,415.359,410.892,0.0
56783.0,STARLINK-6357,PAYLOAD,2023-11-20 14:00:01,15.51239188,0.0003276,69.9996,286.5429,269.9569,197.9683,-0.00068484,-0.00040209,0.0,0 STARLINK-6357,1 56783U 23078S   23324.58334491 -.00040209  00000-0 -68484-3 0  9990,2 56783  69.9996 286.5429 0003276 269.9569 197.9683 15.51239188  5921,6791.244,92.829,415.334,410.884,0.0
56783.0,STARLINK-6357,PAYLOAD,2023-11-20 22:00:00,15.51231223,0.0003278,70.0,285.6315,266.3445,262.4876,-5.9921e-06,-5.17e-06,0.0,0 STARLINK-6357,1 56783U 23078S   23324.91667824 -.00000517  00000-0 -59921-5 0  9992,2 56783  70.0000 285.6315 0003278 266.3445 262.4876 15.51231223  5980,6791.267,92.829,415.358,410.906,0.0
56783.0,STARLINK-6357,PAYLOAD,2023-11-21 06:00:00,15.51209292,0.0003267,70.0,284.72,274.4459,315.3135,0.00052721,0.00030907,0.0,0 STARLINK-6357,1 56783U 23078S   23325.25001157  .00030907  00000-0  52721-3 0  9994,2 56783  70.0000 284.7200 0003267 274.4459 315.3135 15.51209292 27606,6791.331,92.831,415.415,410.977,0.0
56783.0,STARLINK-6357,PAYLOAD,2023-11-21 14:00:01,15.51234312,0.0003177,69.9997,283.8087,272.6458,18.0219,-0.00066953,-0.00039311,0.0,0 STARLINK-6357,1 56783U 23078S   23325.58334491 -.00039311  00000-0 -66953-3 0  9992,2 56783  69.9997 283.8087 0003177 272.6458  18.0219 15.51234312  6035,6791.258,92.829,415.281,410.966,0.0
56783.0,STARLINK-6357,PAYLOAD,2023-11-21 22:00:01,15.51241365,0.0003229,70.0001,282.8976,267.5544,84.0826,-0.00024412,-0.00014487,0.0,0 STARLINK-6357,1 56783U 23078S   23325.91668981 -.00014487  00000-0 -24412-3 0  9994,2 56783  70.0001 282.8976 0003229 267.5544  84.0826 15.51241365 27707,6791.238,92.829,415.295,410.91,0.0
56783.0,STARLINK-6357,PAYLOAD,2023-11-22 00:00:00,15.5125505,0.0003255,70.0,282.6696,268.6877,188.1129,-0.00083814,-0.00049146,0.0,0 STARLINK-6357,1 56783U 23078S   23326.00001157 -.00049146  00000-0 -83814-3 0  9992,2 56783  70.0000 282.6696 0003255 268.6877 188.1129 15.51255050  6001,6791.198,92.828,415.273,410.852,0.0
56783.0,STARLINK-6357,PAYLOAD,2023-11-22 07:19:20,15.51229182,0.0003063,69.9981,281.8352,267.0193,93.0643,8.7059e-06,3.47e-06,0.0,0 STARLINK-6357,1 56783U 23078S   23326.30510366  .00000347  00000-0  87059-5 0  9997,2 56783  69.9981 281.8352 0003063 267.0193  93.0643 15.51229182 27507,6791.273,92.83,415.218,411.058,0.0
56783.0,STARLINK-6357,PAYLOAD,2023-11-23 00:20:47,15.51227949,0.0002817,69.9989,279.8969,265.57,94.5165,-1.4962e-05,-1.043e-05,0.0,0 STARLINK-6357,1 56783U 23078S   23327.01443670 -.00001043  00000-0 -14962-4 0  9997,2 56783  69.9989 279.8969 0002817 265.5700  94.5165 15.51227949 27873,6791.277,92.83,415.055,411.229,0.0
56783.0,STARLINK-6357,PAYLOAD,2023-11-23 06:32:13,15.51221684,0.0003029,69.9986,279.1925,261.8057,98.2786,-2.288e-05,-1.508e-05,0.0,0 STARLINK-6357,1 56783U 23078S   23327.27237887 -.00001508  00000-0 -22880-4 0  9990,2 56783  69.9986 279.1925 0003029 261.8057  98.2786 15.51221684 27910,6791.295,92.83,415.217,411.103,0.0
56783.0,STARLINK-6357,PAYLOAD,2023-11-23 22:00:45,15.51248874,0.0003184,69.9979,277.4272,272.4161,87.6661,4.3389e-05,2.387e-05,0.0,0 STARLINK-6357,1 56783U 23078S   23327.91719398  .00002387  00000-0  43389-4 0  9994,2 56783  69.9979 277.4272 0003184 272.4161  87.6661 15.51248874 27750,6791.216,92.828,415.243,410.918,0.0
56783.0,STARLINK-6357,PAYLOAD,2023-11-23 23:33:38,15.5123035,0.0004116,69.9984,277.2541,286.3733,73.7001,2.7308e-06,-5e-08,0.0,0 STARLINK-6357,1 56783U 23078S   23327.98169389 -.00000005  00000-0  27308-5 0  9990,2 56783  69.9984 277.2541 0004116 286.3733  73.7001 15.51230350 28023,6791.27,92.83,415.93,410.339,0.0
